[{"OBJECT_NAME":"FLOCK 4G-14","OBJECT_ID":"2025-009BL","EPOCH":"2026-03-09T18:12:31.432032","MEAN_MOTION":15.27197201,"ECCENTRICITY":0.00030064,"INCLINATION":97.4064,"RA_OF_ASC_NODE":151.1836,"ARG_OF_PERICENTER":318.3639,"MEAN_ANOMALY":41.7371,"EPHEMERIS_TYPE":0,"CLASSIFICATION_TYPE":"U","NORAD_CAT_ID":62667,"ELEMENT_SET_NO":999,"REV_AT_EPOCH":6371,"BSTAR":0.00042675627,"MEAN_MOTION_DOT":0.0001131,"MEAN_MOTION_DDOT":0},{"OBJECT_NAME":"AIST-2 (RS43)","OBJECT_ID":"2013-015D","EPOCH":"2026-03-09T22:52:25.813056","MEAN_MOTION":15.25079544,"ECCENTRICITY":0.00239979,"INCLINATION":64.8687,"RA_OF_ASC_NODE":221.5348,"ARG_OF_PERICENTER":248.8384,"MEAN_ANOMALY":111.0181,"EPHEMERIS_TYPE":0,"CLASSIFICATION_TYPE":"U","NORAD_CAT_ID":39133,"ELEMENT_SET_NO":999,"REV_AT_EPOCH":70876,"BSTAR":0.00037899099,"MEAN_MOTION_DOT":9.402e-5,"MEAN_MOTION_DDOT":0}]
